#dP2024  2 13  0  0  0.00000000      97 __u+U IGS20 FIT  IAC
## 2301 172800.00000000   900.00000000 60353 0.0000000000000
+  119   C06C07C08C09C10C11C12C13C14C16C19C20C21C22C23C24C25
+        C26C27C28C29C30C32C33C34C35C36C37C38C39C40C41C42C43
+        C44C45C46E02E03E04E05E07E08E09E10E11E12E13E14E15E18
+        E19E21E24E25E26E27E30E31E33E34E36G01G02G03G04G05G06
+        G07G08G09G10G11G12G13G14G15G16G17G18G19G20G21G22G23
+        G24G25G26G27G28G29G30G31G32J02J03J04R01R02R03R04R05
+        R07R08R09R11R12R13R14R15R16R17R18R19R20R21R22R24R26
++         7  7  7  7  7  7  7  7  7  7  5  5  6  5  6  6  6
++         6  5  5  6  6  6  6  6  6  5  5  6  6  6  6  6  6
++         6  6  5  5  4  4  4  4  4  4  4  4  4  4  5  4  4
++         4  4  4  5  4  4  6  4  4  5  4  4  4  3  3  3  3
++         3  4  3  4  3  3  3  3  4  3  3  3  3  3  3  3  3
++         3  3  3  3  3  3  3  3  3  9  9  9  8  6  6  7  7
++         6  6  6  7  6  8  7  7  6  6  6  7  7  6  6  7  8
%c M  cc GPS ccc cccc cccc cccc cccc ccccc ccccc ccccc ccccc
%c cc cc ccc ccc cccc cccc cccc cccc ccccc ccccc ccccc ccccc
%f  1.2500000  1.025000000  0.00000000000  0.000000000000000
%f  0.0000000  0.000000000  0.00000000000  0.000000000000000
%i    0    0    0    0      0      0      0      0         0
%i    0    0    0    0      0      0      0      0         0
/* INFORMATION & ANALYSIS CENTER (IAC)            FINAL DATA
/* S/V CLOCKS ARE ALIGNED TO GNSS TIME                      
/* G:C1WC2W R:C1PC2P E:C1XC5X C:C2IC6I J:C1CC2S             
/* PCV:IGS20_2290 OL/AL:FES2004  NONE     YN ORB:CoN CLK:CoN
*  2024 02 13  4 30  0.00000000
PC06 -18857.788854  32727.023755  18479.477439    106.812496
PC07  -4360.515257  37944.472893  18151.860930   -792.996187
PC08  -6120.431163  19411.796849 -36918.566788     42.189562
PC09 -10910.550887  31347.855734  26065.659024   -482.987201
PC10   1551.188157  40515.964911  12870.070854     87.205439
PC11  18203.437183  -2379.627180 -20945.034654    407.917149
PC12   6706.812707  16241.179937 -21637.004033    771.207627
PC13   3258.143792  22935.408811 -35012.991755    416.881399
PC14  19035.199895   8251.920891  18707.742501    178.860437
PC16 -20574.186752  32521.138484  17083.613610   -336.702487
PC19 -16275.809698   1990.977382 -22548.341121   -927.341747
PC20 -18820.676072 -15712.145400 -13285.921839   -157.745119
PC21  10133.491694  25541.024897  -4926.544858   -962.243883
PC22  -4244.240648  19619.653859 -19394.430305   -111.712649
PC23  15227.862116 -13487.012549 -19107.309794   -781.540173
PC24  23466.104495   9154.702948  11962.545310    879.668818
PC25  27049.109667  -4035.305194  -5511.700605    324.907114
PC26   6870.074984  15791.115434  21931.272844   -248.449098
PC27    -15.156527 -22278.178163  16796.648917    270.442902
PC28  12973.035178 -24560.732977   2715.838452    205.700195
PC29 -19573.229902  12144.914315  15744.323413    241.090537
PC30 -13781.614408  -8200.774052  22831.173603    -24.610460
PC32 -10228.667054 -25460.222744   5070.172050   -566.848774
PC33  16360.593831  -1978.249757  22530.206119   -948.391258
PC34  14729.372867   6586.665018 -22780.406527    368.191820
PC35 -12079.638811  24995.644913  -2620.685329    434.867091
PC36 -27286.697360   3067.046653   5027.817037    -16.888046
PC37  -6043.756379 -16013.454021 -22043.483178   -935.969016
PC38 -15205.814718  18589.337445 -34617.315501    136.489784
PC39 -24276.755637  32861.783118   9970.034449     -7.108190
PC40  -8668.155251  35071.341499  21950.600356    -56.268395
PC41   4895.453566 -19036.490382  19861.321508   -890.196019
PC42  18661.046371  16988.445524  11990.331971   -454.946586
PC43  19673.790744 -11217.510637 -16330.806874     60.229041
PC44    873.953793  22376.231157 -16643.150250    382.933105
PC45 -15060.086754  13419.288208  19283.471935    -69.772139
PC46 -24054.940213  -8649.403813 -11256.161457   -123.419087
PE02  16956.207731  21445.882430  11309.209610    102.973397
PE03   7290.751568  25398.530575  13346.205962    -93.485087
PE04 -16113.072122  -7041.596632 -23802.477482   -326.075093
PE05  -5651.014908  28665.863527  -4733.909040   4719.543934
PE07  15516.974133 -14788.792612  20416.700666   -103.500207
PE08  15820.956791   7824.021971  23765.115836   -223.068366
PE09 -15416.768757  14700.708020 -20552.537355   -334.203050
PE10 -27451.830324   6903.618911   8651.774727   -601.546940
PE11 -26198.002532  13638.323141  -1795.364604   3249.485011
PE12 -24508.405850   -288.045573  16581.490458   -904.127584
PE13  26429.043296 -13300.154671   1116.125268    -20.170799
PE14  14789.440629  19835.906749 -20246.554066     37.924022
PE15  24222.226347    608.082036 -17001.038977    -85.518496
PE18 -15401.868770  -4629.248016  18801.278598    320.785160
PE19  -5700.918526 -26657.473952 -11532.813803   -625.093859
PE21   1201.460225 -18561.083179 -23036.633907   -578.756660
PE24 -19817.121723   4341.382191  21540.711600   -595.363676
PE25  -1619.814153  18365.495575  23151.348866      0.815896
PE26  12490.321466 -19326.003142  18632.135863    367.266045
PE27  19479.458877  -4747.735279 -21777.497090   -273.417310
PE30  26027.956615  11930.050760  -7493.250816      8.178118
PE31 -26075.839476 -11719.600160   7687.450066    -15.886334
PE33  -7256.885992 -14255.137663  24913.647480      7.508171
PE34   7873.449118  13950.818398 -24889.798467    -94.347683
PE36 -13155.242615  19200.116092 -18272.218233   -185.216015
PG01   -367.291488  15803.069311 -21626.229423    169.340545
PG02  -8355.020354  18371.096989 -16640.026747   -486.264070
PG03   4542.242518  18279.055380 -18919.532700    189.787799
PG04  -1506.149725  26388.116686   1710.030657    290.386021
PG05   8172.742136 -12518.817923  21780.329096   -161.618181
PG06  24390.731309  -4718.046599  -9474.902177    409.132496
PG07  12969.397418  10529.618573  21226.616098    -60.696488
PG08  -5926.512178  24620.297575   7142.402239   -166.762834
PG09   8343.885234  21419.626372  13174.266603     90.410440
PG10 -23633.496665 -10006.880557  -7258.106407      0.175702
PG11  23653.662902 -11840.985442   2117.920033   -574.008264
PG12  -2559.792703 -18712.775163 -18988.777567   -477.467251
PG13  13228.366754 -18464.288290  13378.665161    625.046197
PG14  23025.500575  12843.761588  -3948.721883    324.353528
PG15   2893.860739 -25288.518022   6710.252457    127.157964
PG16 -14888.477282   6567.664811  20745.559354   -363.805095
PG17  12984.080800   9630.759844 -20618.912402    717.160865
PG18 -13601.623512  -9280.079843  20894.919216   -554.408892
PG19  15273.607918   -249.744911 -21887.009184    439.935844
PG20  19573.722459  -4802.922364  17276.810701    387.699599
PG21 -12786.539879  18383.801330 -12991.749090    135.120620
PG22  22342.189371   8147.129569 -11092.244672     32.090853
PG23 -20372.424218 -16557.840067   4679.792922    155.074386
PG24   9241.789118 -19375.716896 -15783.145598   -430.847028
PG25 -13796.123447 -19430.734404 -12345.010043    488.419755
PG26 -22320.169540   -205.213265  14514.057725    190.768819
PG27 -12639.632283  15695.662949  16796.877986     -3.566066
PG28 -23508.816908   3063.293320 -11989.315461   -129.313475
PG29  -5137.140893 -22911.659771  12265.894733   -607.086108
PG30  21413.449807   2522.721975  15809.969945   -433.265562
PG31 -24997.150109   9147.679222  -3153.336385   -227.749510
PG32 -14559.619219  -5681.339227 -21299.528999   -611.333004
PJ02 -27351.011354  20937.903010  29432.736199     -1.939559
PJ03 -35017.962488  23342.793510   1322.080247     -0.223454
PJ04 -17976.598882  28005.592057 -20775.058840     50.926139
PR01  -6347.250008  12363.713179 -21386.640666     77.041605
PR02   3084.969620  23574.268971  -9101.030016    -22.461493
PR03  11192.494373  21323.338877   8368.776813     94.419821
PR04  12597.754385   7665.673727  20842.225767    223.213717
PR05   7512.256526 -10226.607488  22147.920798    126.832179
PR07 -11375.360477 -20980.808533  -9032.447606     75.708827
PR08 -12708.006505  -7387.805169 -20792.621971    -74.392418
PR09     99.549437 -11454.362430 -22774.531465    169.706243
PR11 -25009.850881  -4967.961055   -290.593829     34.509672
PR12 -18102.793105   4859.066667  17326.922908     36.692770
PR13  -2772.854256  10718.786150  22958.625415    -44.300762
PR14  17359.193937  10877.083565  15214.811516     26.066437
PR15  25088.028010   4461.017196  -1196.777916     82.238229
PR16  18297.153290  -4693.742318 -17156.997685     23.250547
PR17   4898.557109  10156.355760 -22872.408113     60.805550
PR18  15782.687829  -4065.627855 -19625.218384    127.126017
PR19  19303.749493 -14680.766743  -7908.885207   -265.614747
PR20  10833.582658 -19201.803715  12883.241575   -108.186516
PR21  -5025.878343  -9888.055390  22971.327961    -76.558092
PR22 -16592.477306   4210.325623  18932.432374    107.848716
PR24  -9425.469358  19672.945960 -13208.617519    -43.706417
PR26 -12860.691404  -8199.516701 -20414.869341   -198.639308
EOF
